<?xml version='1.0' encoding='utf-8'?>
<kml xmlns="http://www.opengis.net/kml/2.2">
  <Document>
    <name>Circuito Mugello - Línea continua</name>
    <Placemark>
      <name>Circuito Mugello</name>
      <LineString>
        <tessellate>1</tessellate>
        <altitudeMode>absolute</altitudeMode>
        <coordinates>
11.37149650090408,43.99758265447097,256.0
11.3751547154662,44.00311453966479,268.0
11.37570878970725,44.00326105947403,268.0
11.37618261429373,44.00305697102322,269.0
11.37631539345632,44.00279474050314,272.0
11.37602884708407,44.00144864422621,280.0
11.37615197789951,44.00123473420027,280.0
11.37707689242104,44.00082549002367,282.0
11.37731248647307,44.00048844529314,284.0
11.37722021193938,44.000123388194,285.0
11.37482289856738,43.99749618652729,281.0
11.37485361403651,43.99712714781948,282.0
11.37519343096652,43.99669646941431,280.0
11.3751050588706,43.99631721774779,279.0
11.37260975257893,43.99415608060823,265.0
11.37111310318959,43.99407349901766,255.0
11.37045052654332,43.99386907668737,251.0
11.37004587067652,43.99346607758238,247.0
11.36940018138305,43.99213143966437,243.0
11.36890583493548,43.9917141063755,243.0
11.36801983579136,43.99153005289496,246.0
11.36597013843274,43.99227024676193,259.0
11.3657439242495,43.99276921851885,264.0
11.36648723291673,43.99545561035495,272.0
11.36685109647855,43.9956584929308,271.0
11.36786904458812,43.99570913778936,269.0
11.36830294752644,43.99592302488187,268.0
11.36967960153846,43.99904951079815,272.0
11.37027813855379,43.99930139077022,268.0
11.37082532836821,43.99910145811435,266.0
11.37104019136353,43.99865068754556,264.0
11.37082247875905,43.99827282652089,262.0
11.36985635711082,43.99730299661141,261.0
11.36979353103736,43.99649191383857,259.0
11.36661582684002,43.99322463503049,260.0
11.36638888888889,43.99277777777778,260.0
11.36715396066201,43.99245152525784,256.0
11.36814619049562,43.99259366021041,250.0
11.37149650090408,43.99758265447097,256.0
</coordinates>
      </LineString>
    </Placemark>
  </Document>
</kml>